[{"OBJECT_NAME":"COSMOS 2251 DEB","OBJECT_ID":"1993-036AHB","EPOCH":"2026-04-05T17:25:14.028384","MEAN_MOTION":14.2617246,"ECCENTRICITY":0.0111166,"INCLINATION":74.1062,"RA_OF_ASC_NODE":197.6454,"ARG_OF_PERICENTER":154.0447,"MEAN_ANOMALY":359.52,"EPHEMERIS_TYPE":0,"CLASSIFICATION_TYPE":"U","NORAD_CAT_ID":35038,"ELEMENT_SET_NO":999,"REV_AT_EPOCH":87193,"BSTAR":0.0019961,"MEAN_MOTION_DOT":5.08e-5,"MEAN_MOTION_DDOT":0},{"OBJECT_NAME":"COSMOS 2251 DEB","OBJECT_ID":"1993-036AHG","EPOCH":"2026-04-05T15:39:17.476704","MEAN_MOTION":14.83575428,"ECCENTRICITY":0.0086856,"INCLINATION":73.9473,"RA_OF_ASC_NODE":179.9025,"ARG_OF_PERICENTER":356.5545,"MEAN_ANOMALY":3.5022,"EPHEMERIS_TYPE":0,"CLASSIFICATION_TYPE":"U","NORAD_CAT_ID":35043,"ELEMENT_SET_NO":999,"REV_AT_EPOCH":69104,"BSTAR":0.0030963,"MEAN_MOTION_DOT":0.00027348,"MEAN_MOTION_DDOT":0},{"OBJECT_NAME":"COSMOS 2251 DEB","OBJECT_ID":"1993-036AHJ","EPOCH":"2026-04-02T02:12:27.491904","MEAN_MOTION":14.0064901,"ECCENTRICITY":0.01804394,"INCLINATION":73.7183,"RA_OF_ASC_NODE":217.7653,"ARG_OF_PERICENTER":83.3008,"MEAN_ANOMALY":278.8622,"EPHEMERIS_TYPE":0,"CLASSIFICATION_TYPE":"U","NORAD_CAT_ID":35045,"ELEMENT_SET_NO":999,"REV_AT_EPOCH":86188,"BSTAR":0.00068123931,"MEAN_MOTION_DOT":1.143e-5,"MEAN_MOTION_DDOT":0},{"OBJECT_NAME":"COSMOS 2251 DEB","OBJECT_ID":"1993-036AHP","EPOCH":"2026-03-26T06:43:28.650144","MEAN_MOTION":14.4185462,"ECCENTRICITY":0.0016908,"INCLINATION":74.0372,"RA_OF_ASC_NODE":52.4912,"ARG_OF_PERICENTER":120.8059,"MEAN_ANOMALY":239.4763,"EPHEMERIS_TYPE":0,"CLASSIFICATION_TYPE":"U","NORAD_CAT_ID":35060,"ELEMENT_SET_NO":999,"REV_AT_EPOCH":88734,"BSTAR":0.00031017,"MEAN_MOTION_DOT":9.9e-6,"MEAN_MOTION_DDOT":0},{"OBJECT_NAME":"COSMOS 2251 DEB","OBJECT_ID":"1993-036AHQ","EPOCH":"2026-04-04T09:28:06.852864","MEAN_MOTION":14.68849441,"ECCENTRICITY":0.00405018,"INCLINATION":74.0429,"RA_OF_ASC_NODE":87.9864,"ARG_OF_PERICENTER":175.1465,"MEAN_ANOMALY":185.0107,"EPHEMERIS_TYPE":0,"CLASSIFICATION_TYPE":"U","NORAD_CAT_ID":35061,"ELEMENT_SET_NO":999,"REV_AT_EPOCH":90228,"BSTAR":0.00099831724,"MEAN_MOTION_DOT":5.879e-5,"MEAN_MOTION_DDOT":0},{"OBJECT_NAME":"COSMOS 2251 DEB","OBJECT_ID":"1993-036AHR","EPOCH":"2026-04-05T09:31:02.476416","MEAN_MOTION":14.24197359,"ECCENTRICITY":0.01259576,"INCLINATION":74.0781,"RA_OF_ASC_NODE":249.2417,"ARG_OF_PERICENTER":220.0378,"MEAN_ANOMALY":139.1434,"EPHEMERIS_TYPE":0,"CLASSIFICATION_TYPE":"U","NORAD_CAT_ID":35062,"ELEMENT_SET_NO":999,"REV_AT_EPOCH":87116,"BSTAR":0.0030429196,"MEAN_MOTION_DOT":7.596e-5,"MEAN_MOTION_DDOT":0},{"OBJECT_NAME":"COSMOS 2251 DEB","OBJECT_ID":"1993-036AHU","EPOCH":"2026-04-05T08:37:31.874016","MEAN_MOTION":14.46141481,"ECCENTRICITY":0.00185989,"INCLINATION":74.0212,"RA_OF_ASC_NODE":342.1636,"ARG_OF_PERICENTER":83.9963,"MEAN_ANOMALY":276.3314,"EPHEMERIS_TYPE":0,"CLASSIFICATION_TYPE":"U","NORAD_CAT_ID":35065,"ELEMENT_SET_NO":999,"REV_AT_EPOCH":69993,"BSTAR":0.00050890784,"MEAN_MOTION_DOT":1.796e-5,"MEAN_MOTION_DDOT":0},{"OBJECT_NAME":"COSMOS 2251 DEB","OBJECT_ID":"1993-036AJA","EPOCH":"2026-04-01T20:54:46.714464","MEAN_MOTION":15.06216186,"ECCENTRICITY":0.00669114,"INCLINATION":73.9314,"RA_OF_ASC_NODE":306.4702,"ARG_OF_PERICENTER":176.9848,"MEAN_ANOMALY":183.176,"EPHEMERIS_TYPE":0,"CLASSIFICATION_TYPE":"U","NORAD_CAT_ID":35071,"ELEMENT_SET_NO":999,"REV_AT_EPOCH":69193,"BSTAR":0.00079863614,"MEAN_MOTION_DOT":0.00012297,"MEAN_MOTION_DDOT":0},{"OBJECT_NAME":"COSMOS 2251 DEB","OBJECT_ID":"1993-036AJC","EPOCH":"2026-04-03T08:06:40.472352","MEAN_MOTION":15.12685924,"ECCENTRICITY":0.0015792,"INCLINATION":73.9789,"RA_OF_ASC_NODE":100.9814,"ARG_OF_PERICENTER":228.4793,"MEAN_ANOMALY":131.5047,"EPHEMERIS_TYPE":0,"CLASSIFICATION_TYPE":"U","NORAD_CAT_ID":35073,"ELEMENT_SET_NO":999,"REV_AT_EPOCH":69159,"BSTAR":0.0051484244,"MEAN_MOTION_DOT":0.00091503,"MEAN_MOTION_DDOT":0},{"OBJECT_NAME":"COSMOS 2251 DEB","OBJECT_ID":"1993-036AJN","EPOCH":"2026-04-05T21:09:51.735456","MEAN_MOTION":14.38453775,"ECCENTRICITY":0.0015304,"INCLINATION":74.0492,"RA_OF_ASC_NODE":54.2365,"ARG_OF_PERICENTER":109.6629,"MEAN_ANOMALY":281.7759,"EPHEMERIS_TYPE":0,"CLASSIFICATION_TYPE":"U","NORAD_CAT_ID":35284,"ELEMENT_SET_NO":999,"REV_AT_EPOCH":67167,"BSTAR":0.0002097,"MEAN_MOTION_DOT":6.15e-6,"MEAN_MOTION_DDOT":0},{"OBJECT_NAME":"COSMOS 2251 DEB","OBJECT_ID":"1993-036AJR","EPOCH":"2026-04-04T08:31:57.537120","MEAN_MOTION":14.36478361,"ECCENTRICITY":0.00173567,"INCLINATION":74.0291,"RA_OF_ASC_NODE":69.1804,"ARG_OF_PERICENTER":146.8284,"MEAN_ANOMALY":6.7249,"EPHEMERIS_TYPE":0,"CLASSIFICATION_TYPE":"U","NORAD_CAT_ID":35287,"ELEMENT_SET_NO":999,"REV_AT_EPOCH":88509,"BSTAR":0.00018910892,"MEAN_MOTION_DOT":5.29e-6,"MEAN_MOTION_DDOT":0},{"OBJECT_NAME":"COSMOS 2251 DEB","OBJECT_ID":"1993-036AJS","EPOCH":"2026-04-05T10:05:43.733184","MEAN_MOTION":14.67040889,"ECCENTRICITY":0.00375479,"INCLINATION":73.9487,"RA_OF_ASC_NODE":154.9173,"ARG_OF_PERICENTER":355.0377,"MEAN_ANOMALY":5.0414,"EPHEMERIS_TYPE":0,"CLASSIFICATION_TYPE":"U","NORAD_CAT_ID":35288,"ELEMENT_SET_NO":999,"REV_AT_EPOCH":89544,"BSTAR":0.0011006343,"MEAN_MOTION_DOT":6.212e-5,"MEAN_MOTION_DDOT":0},{"OBJECT_NAME":"COSMOS 2251 DEB","OBJECT_ID":"1993-036AJU","EPOCH":"2026-04-05T16:16:46.629408","MEAN_MOTION":14.84604711,"ECCENTRICITY":0.0007148,"INCLINATION":74.0028,"RA_OF_ASC_NODE":193.6916,"ARG_OF_PERICENTER":290.0253,"MEAN_ANOMALY":70.0155,"EPHEMERIS_TYPE":0,"CLASSIFICATION_TYPE":"U","NORAD_CAT_ID":35290,"ELEMENT_SET_NO":999,"REV_AT_EPOCH":89646,"BSTAR":0.0024507,"MEAN_MOTION_DOT":0.00020745,"MEAN_MOTION_DDOT":0},{"OBJECT_NAME":"COSMOS 2251 DEB","OBJECT_ID":"1993-036AKB","EPOCH":"2026-04-02T20:34:45.113376","MEAN_MOTION":14.3494573,"ECCENTRICITY":0.00261819,"INCLINATION":74.0332,"RA_OF_ASC_NODE":134.8248,"ARG_OF_PERICENTER":169.4452,"MEAN_ANOMALY":7.7133,"EPHEMERIS_TYPE":0,"CLASSIFICATION_TYPE":"U","NORAD_CAT_ID":35433,"ELEMENT_SET_NO":999,"REV_AT_EPOCH":88174,"BSTAR":0.00028882009,"MEAN_MOTION_DOT":7.99e-6,"MEAN_MOTION_DDOT":0},{"OBJECT_NAME":"COSMOS 2251 DEB","OBJECT_ID":"1993-036AKC","EPOCH":"2026-04-05T03:35:27.400416","MEAN_MOTION":14.26111272,"ECCENTRICITY":0.00849066,"INCLINATION":74.0429,"RA_OF_ASC_NODE":8.8553,"ARG_OF_PERICENTER":53.0207,"MEAN_ANOMALY":307.8674,"EPHEMERIS_TYPE":0,"CLASSIFICATION_TYPE":"U","NORAD_CAT_ID":35434,"ELEMENT_SET_NO":999,"REV_AT_EPOCH":87734,"BSTAR":0.00087252694,"MEAN_MOTION_DOT":2.143e-5,"MEAN_MOTION_DDOT":0},{"OBJECT_NAME":"COSMOS 2251 DEB","OBJECT_ID":"1993-036AKD","EPOCH":"2026-04-05T16:07:18.197760","MEAN_MOTION":14.82405462,"ECCENTRICITY":0.0009395,"INCLINATION":74.0091,"RA_OF_ASC_NODE":239.1326,"ARG_OF_PERICENTER":305.9033,"MEAN_ANOMALY":70.9211,"EPHEMERIS_TYPE":0,"CLASSIFICATION_TYPE":"U","NORAD_CAT_ID":35435,"ELEMENT_SET_NO":999,"REV_AT_EPOCH":89225,"BSTAR":0.0027275,"MEAN_MOTION_DOT":0.00021909,"MEAN_MOTION_DDOT":0},{"OBJECT_NAME":"COSMOS 2251 DEB","OBJECT_ID":"1993-036AKH","EPOCH":"2026-04-03T15:18:23.357376","MEAN_MOTION":13.93440644,"ECCENTRICITY":0.0241916,"INCLINATION":74.0178,"RA_OF_ASC_NODE":302.9009,"ARG_OF_PERICENTER":87.4229,"MEAN_ANOMALY":331.9903,"EPHEMERIS_TYPE":0,"CLASSIFICATION_TYPE":"U","NORAD_CAT_ID":35439,"ELEMENT_SET_NO":999,"REV_AT_EPOCH":85519,"BSTAR":0.0025355,"MEAN_MOTION_DOT":4.207e-5,"MEAN_MOTION_DDOT":0},{"OBJECT_NAME":"COSMOS 2251 DEB","OBJECT_ID":"1993-036AKJ","EPOCH":"2026-04-04T10:18:07.612992","MEAN_MOTION":14.69553146,"ECCENTRICITY":0.00677152,"INCLINATION":74.0171,"RA_OF_ASC_NODE":349.1246,"ARG_OF_PERICENTER":103.5835,"MEAN_ANOMALY":257.289,"EPHEMERIS_TYPE":0,"CLASSIFICATION_TYPE":"U","NORAD_CAT_ID":35440,"ELEMENT_SET_NO":999,"REV_AT_EPOCH":70420,"BSTAR":0.00072514842,"MEAN_MOTION_DOT":4.429e-5,"MEAN_MOTION_DDOT":0},{"OBJECT_NAME":"COSMOS 2251 DEB","OBJECT_ID":"1993-036AKK","EPOCH":"2026-04-04T06:03:38.741472","MEAN_MOTION":14.64618387,"ECCENTRICITY":0.00371433,"INCLINATION":74.132,"RA_OF_ASC_NODE":83.4499,"ARG_OF_PERICENTER":298.0566,"MEAN_ANOMALY":61.6848,"EPHEMERIS_TYPE":0,"CLASSIFICATION_TYPE":"U","NORAD_CAT_ID":35441,"ELEMENT_SET_NO":999,"REV_AT_EPOCH":89076,"BSTAR":0.0029763603,"MEAN_MOTION_DOT":0.00015982,"MEAN_MOTION_DDOT":0},{"OBJECT_NAME":"COSMOS 2251 DEB","OBJECT_ID":"1993-036AKL","EPOCH":"2026-04-05T18:55:42.836736","MEAN_MOTION":14.90204356,"ECCENTRICITY":0.000303,"INCLINATION":74.0241,"RA_OF_ASC_NODE":231.7945,"ARG_OF_PERICENTER":247.8111,"MEAN_ANOMALY":112.2749,"EPHEMERIS_TYPE":0,"CLASSIFICATION_TYPE":"U","NORAD_CAT_ID":35442,"ELEMENT_SET_NO":999,"REV_AT_EPOCH":89048,"BSTAR":0.0033986,"MEAN_MOTION_DOT":0.00033074,"MEAN_MOTION_DDOT":0},{"OBJECT_NAME":"COSMOS 2251 DEB","OBJECT_ID":"1993-036AKM","EPOCH":"2026-04-03T10:56:08.786400","MEAN_MOTION":15.11860953,"ECCENTRICITY":0.00651102,"INCLINATION":73.9799,"RA_OF_ASC_NODE":102.4384,"ARG_OF_PERICENTER":223.9918,"MEAN_ANOMALY":135.6084,"EPHEMERIS_TYPE":0,"CLASSIFICATION_TYPE":"U","NORAD_CAT_ID":35443,"ELEMENT_SET_NO":999,"REV_AT_EPOCH":88557,"BSTAR":0.0057684555,"MEAN_MOTION_DOT":0.0010528,"MEAN_MOTION_DDOT":0},{"OBJECT_NAME":"COSMOS 2251 DEB","OBJECT_ID":"1993-036AKP","EPOCH":"2026-04-05T09:35:36.496608","MEAN_MOTION":14.61478593,"ECCENTRICITY":0.01389826,"INCLINATION":74.0356,"RA_OF_ASC_NODE":82.8934,"ARG_OF_PERICENTER":143.5746,"MEAN_ANOMALY":217.4978,"EPHEMERIS_TYPE":0,"CLASSIFICATION_TYPE":"U","NORAD_CAT_ID":35445,"ELEMENT_SET_NO":999,"REV_AT_EPOCH":88988,"BSTAR":0.0014128182,"MEAN_MOTION_DOT":8.015e-5,"MEAN_MOTION_DDOT":0},{"OBJECT_NAME":"COSMOS 2251 DEB","OBJECT_ID":"1993-036AKQ","EPOCH":"2026-04-02T17:50:54.667392","MEAN_MOTION":14.54757254,"ECCENTRICITY":0.00762334,"INCLINATION":74.0442,"RA_OF_ASC_NODE":108.2782,"ARG_OF_PERICENTER":199.5069,"MEAN_ANOMALY":160.3174,"EPHEMERIS_TYPE":0,"CLASSIFICATION_TYPE":"U","NORAD_CAT_ID":35446,"ELEMENT_SET_NO":999,"REV_AT_EPOCH":89622,"BSTAR":9.7258166e-5,"MEAN_MOTION_DOT":4.02e-6,"MEAN_MOTION_DDOT":0}]
